KUIPER-00133            
1 65764U 25217C   25343.68841713 -.00000740  00000+0 -67561-4 0  9991
2 65764  51.9048  91.0731 0013566  15.8588 344.2797 14.79858129 11411
KUIPER-00139            
1 65765U 25217D   25345.54806703  .00011999  00000+0  93309-3 0  9993
2 65765  51.8855  77.3859 0008090  18.0119 342.1138 15.01618739 11767
KUIPER-00142            
1 65766U 25217E   25345.66668981 -.01172347  00000+0 -49208-1 0  9996
2 65766  51.8727  70.0305 0002668  25.1804 348.3314 15.25707210  4649
KUIPER-00145            
1 65767U 25217F   25345.66668981 -.00811107  00000+0 -43222-1 0  9990
2 65767  51.8836  71.1848 0006260 347.5314 130.2648 15.17489748  5928
KUIPER-00147            
1 65768U 25217G   25345.66668981  .00047856  00000+0  31280-2 0  9993
2 65768  51.8829  72.8952 0010127  16.7963 310.1405 15.07295510  5782
KUIPER-00148            
1 65769U 25217H   25345.66668981 -.00909696  00000+0 -54495-1 0  9997
2 65769  51.8769  72.6351 0009606  42.8934 128.8778 15.13219030  4310
KUIPER-00150            
1 65770U 25217J   25345.66668981  .00015244  00000+0  19676-2 0  9997
2 65770  51.9006  79.7596 0000984  53.0463  74.3361 14.81124252  5732
KUIPER-00151            
1 65771U 25217K   25345.66668981  .00050029  00000+0  35590-2 0  9991
2 65771  51.8844  73.6614 0003168  18.0755  37.0553 15.04157250  5478
